{
    "links": {
        "self": "http://www.neowsapp.com/rest/v1/neo/3612645?api_key=iIulBulltgU6a56xZRHN4H3l9WmuAYTsLGpBGhQ2"
    },
    "id": "3612645",
    "neo_reference_id": "3612645",
    "name": "(2012 UR18)",
    "designation": "2012 UR18",
    "nasa_jpl_url": "http://ssd.jpl.nasa.gov/sbdb.cgi?sstr=3612645",
    "absolute_magnitude_h": 26.0,
    "estimated_diameter": {
        "kilometers": {
            "estimated_diameter_min": 0.0167708462,
            "estimated_diameter_max": 0.0375007522
        },
        "meters": {
            "estimated_diameter_min": 16.7708462163,
            "estimated_diameter_max": 37.5007521798
        },
        "miles": {
            "estimated_diameter_min": 0.0104209175,
            "estimated_diameter_max": 0.0233018799
        },
        "feet": {
            "estimated_diameter_min": 55.0224631002,
            "estimated_diameter_max": 123.0339677816
        }
    },
    "is_potentially_hazardous_asteroid": false,
    "close_approach_data": [
        {
            "close_approach_date": "2012-10-30",
            "close_approach_date_full": "2012-Oct-30 16:09",
            "epoch_date_close_approach": 1351613340000,
            "relative_velocity": {
                "kilometers_per_second": "8.8176280753",
                "kilometers_per_hour": "31743.4610712403",
                "miles_per_hour": "19724.1522417382"
            },
            "miss_distance": {
                "astronomical": "0.0288697645",
                "lunar": "11.2303383905",
                "kilometers": "4318855.276601615",
                "miles": "2683612.228127687"
            },
            "orbiting_body": "Earth"
        },
        {
            "close_approach_date": "2013-03-27",
            "close_approach_date_full": "2013-Mar-27 23:01",
            "epoch_date_close_approach": 1364425260000,
            "relative_velocity": {
                "kilometers_per_second": "6.1414853245",
                "kilometers_per_hour": "22109.3471682608",
                "miles_per_hour": "13737.8885224118"
            },
            "miss_distance": {
                "astronomical": "0.3887658621",
                "lunar": "151.2299203569",
                "kilometers": "58158544.898873727",
                "miles": "36138044.0567903526"
            },
            "orbiting_body": "Earth"
        }
    ],
    "orbital_data": {
        "orbit_id": "5",
        "orbit_determination_date": "2017-04-06 08:48:26",
        "first_observation_date": "2012-10-18",
        "last_observation_date": "2012-10-24",
        "data_arc_in_days": 6,
        "observations_used": 23,
        "orbit_uncertainty": "8",
        "minimum_orbit_intersection": ".0287793",
        "jupiter_tisserand_invariant": "4.760",
        "epoch_osculation": "2456219.5",
        "eccentricity": ".3503583875362902",
        "semi_major_axis": "1.366317014677906",
        "inclination": "7.52082295986515",
        "ascending_node_longitude": "206.1355146746449",
        "orbital_period": "583.345217632305",
        "perihelion_distance": ".8876163885519569",
        "perihelion_argument": "248.174497873613",
        "aphelion_distance": "1.845017640803854",
        "perihelion_time": "2456276.474247324314",
        "mean_anomaly": "324.8394665512088",
        "mean_motion": ".6171302842957662",
        "equinox": "J2000",
        "orbit_class": {
            "orbit_class_type": "APO",
            "orbit_class_description": "Near-Earth asteroid orbits which cross the Earth’s orbit similar to that of 1862 Apollo",
            "orbit_class_range": "a (semi-major axis) > 1.0 AU; q (perihelion) < 1.017 AU"
        }
    },
    "is_sentry_object": false
}